[{"OBJECT_NAME":"TIANQI-31","OBJECT_ID":"2024-170C","EPOCH":"2026-03-09T19:56:33.224640","MEAN_MOTION":13.99125748,"ECCENTRICITY":0.00074343,"INCLINATION":44.861,"RA_OF_ASC_NODE":220.3339,"ARG_OF_PERICENTER":324.2667,"MEAN_ANOMALY":35.7666,"EPHEMERIS_TYPE":0,"CLASSIFICATION_TYPE":"U","NORAD_CAT_ID":61197,"ELEMENT_SET_NO":999,"REV_AT_EPOCH":7503,"BSTAR":0.00014351436,"MEAN_MOTION_DOT":8.1e-7,"MEAN_MOTION_DDOT":0},{"OBJECT_NAME":"MSX","OBJECT_ID":"1996-024A","EPOCH":"2026-03-09T20:29:19.837248","MEAN_MOTION":13.98381883,"ECCENTRICITY":0.00078802,"INCLINATION":99.0351,"RA_OF_ASC_NODE":7.388,"ARG_OF_PERICENTER":146.6922,"MEAN_ANOMALY":213.4739,"EPHEMERIS_TYPE":0,"CLASSIFICATION_TYPE":"U","NORAD_CAT_ID":23851,"ELEMENT_SET_NO":999,"REV_AT_EPOCH":52446,"BSTAR":-0.00010598443,"MEAN_MOTION_DOT":-1.95e-6,"MEAN_MOTION_DDOT":0}]
